[{"OBJECT_NAME":"OBJECT B","OBJECT_ID":"2024-024B","EPOCH":"2026-03-09T23:03:07.239744","MEAN_MOTION":15.20764865,"ECCENTRICITY":0.00185665,"INCLINATION":97.3159,"RA_OF_ASC_NODE":138.1992,"ARG_OF_PERICENTER":118.5867,"MEAN_ANOMALY":241.724,"EPHEMERIS_TYPE":0,"CLASSIFICATION_TYPE":"U","NORAD_CAT_ID":58918,"ELEMENT_SET_NO":999,"REV_AT_EPOCH":11626,"BSTAR":0.00044590474,"MEAN_MOTION_DOT":9.803e-5,"MEAN_MOTION_DDOT":0},{"OBJECT_NAME":"KUIPER-00055","OBJECT_ID":"2025-134R","EPOCH":"2026-03-09T21:39:01.043424","MEAN_MOTION":15.20562207,"ECCENTRICITY":0.00015256,"INCLINATION":51.8904,"RA_OF_ASC_NODE":178.7702,"ARG_OF_PERICENTER":14.9809,"MEAN_ANOMALY":345.1216,"EPHEMERIS_TYPE":0,"CLASSIFICATION_TYPE":"U","NORAD_CAT_ID":64515,"ELEMENT_SET_NO":999,"REV_AT_EPOCH":4085,"BSTAR":0.00087666982,"MEAN_MOTION_DOT":0.00019176,"MEAN_MOTION_DDOT":0}]
